{
  "type": "FeatureCollection",
  "features": [
    {
      "type": "Feature",
      "properties": {
        "norad_id": 41003,
        "name": "FENGYUN 1C DEB",
        "group": "fengyun-1c-debris",
        "lat": -18.749666707952496,
        "lon": -91.54015892741695,
        "alt_km": 623.4317697258475,
        "timestamp": "2025-12-12T07:43:20.804414+00:00",
        "meta_object_name": "FENGYUN 1C DEB",
        "meta_object_id": "1999-025EXH",
        "meta_epoch": "2025-12-11T12:14:27.482784",
        "meta_mean_motion": 14.72686448,
        "meta_eccentricity": 0.0070582,
        "meta_inclination": 98.9647,
        "meta_ra_of_asc_node": 264.4932,
        "meta_arg_of_pericenter": 296.3478,
        "meta_mean_anomaly": 63.049,
        "meta_ephemeris_type": 0,
        "meta_classification_type": "U",
        "meta_norad_cat_id": 41003,
        "meta_element_set_no": 999,
        "meta_rev_at_epoch": 52402,
        "meta_bstar": 0.0094626523,
        "meta_mean_motion_dot": 0.00063247,
        "meta_mean_motion_ddot": 0,
        "tle_line1": "1 41003U 99025EXH 25345.51004031  .00063247  00000+0  94627-2 0  9997",
        "tle_line2": "2 41003  98.9647 264.4932 0070582 296.3478  63.0490 14.72686448524029"
      },
      "geometry": {
        "type": "Point",
        "coordinates": [
          -91.54015892741695,
          -18.749666707952496
        ]
      }
    },
    {
      "type": "Feature",
      "properties": {
        "norad_id": 41006,
        "name": "FENGYUN 1C DEB",
        "group": "fengyun-1c-debris",
        "lat": -12.188756797236001,
        "lon": -140.3016835367335,
        "alt_km": 819.9221497364297,
        "timestamp": "2025-12-12T07:43:20.804424+00:00",
        "meta_object_name": "FENGYUN 1C DEB",
        "meta_object_id": "1999-025EXL",
        "meta_epoch": "2025-12-08T08:27:10.950912",
        "meta_mean_motion": 13.85315126,
        "meta_eccentricity": 0.01896295,
        "meta_inclination": 102.3663,
        "meta_ra_of_asc_node": 211.7628,
        "meta_arg_of_pericenter": 18.9212,
        "meta_mean_anomaly": 341.8856,
        "meta_ephemeris_type": 0,
        "meta_classification_type": "U",
        "meta_norad_cat_id": 41006,
        "meta_element_set_no": 999,
        "meta_rev_at_epoch": 57428,
        "meta_bstar": 0.0041566845,
        "meta_mean_motion_dot": 5.374e-05,
        "meta_mean_motion_ddot": 0,
        "tle_line1": "1 41006U 99025EXL 25342.35221008  .00005374  00000+0  41567-2 0  9996",
        "tle_line2": "2 41006 102.3663 211.7628 0189629  18.9212 341.8856 13.85315126574285"
      },
      "geometry": {
        "type": "Point",
        "coordinates": [
          -140.3016835367335,
          -12.188756797236001
        ]
      }
    },
    {
      "type": "Feature",
      "properties": {
        "norad_id": 41007,
        "name": "FENGYUN 1C DEB",
        "group": "fengyun-1c-debris",
        "lat": -6.503569045881328,
        "lon": -168.08026986033738,
        "alt_km": 1044.8051104533724,
        "timestamp": "2025-12-12T07:43:20.804434+00:00",
        "meta_object_name": "FENGYUN 1C DEB",
        "meta_object_id": "1999-025EXM",
        "meta_epoch": "2025-11-29T06:55:22.773792",
        "meta_mean_motion": 13.85678237,
        "meta_eccentricity": 0.01723955,
        "meta_inclination": 99.9731,
        "meta_ra_of_asc_node": 359.205,
        "meta_arg_of_pericenter": 79.2855,
        "meta_mean_anomaly": 282.7657,
        "meta_ephemeris_type": 0,
        "meta_classification_type": "U",
        "meta_norad_cat_id": 41007,
        "meta_element_set_no": 999,
        "meta_rev_at_epoch": 57212,
        "meta_bstar": 0.0017167305,
        "meta_mean_motion_dot": 2.158e-05,
        "meta_mean_motion_ddot": 0,
        "tle_line1": "1 41007U 99025EXM 25333.28845803  .00002158  00000+0  17167-2 0  9990",
        "tle_line2": "2 41007  99.9731 359.2050 0172395  79.2855 282.7657 13.85678237572123"
      },
      "geometry": {
        "type": "Point",
        "coordinates": [
          -168.08026986033738,
          -6.503569045881328
        ]
      }
    },
    {
      "type": "Feature",
      "properties": {
        "norad_id": 41011,
        "name": "FENGYUN 1C DEB",
        "group": "fengyun-1c-debris",
        "lat": -59.19068784103815,
        "lon": -164.41505110117185,
        "alt_km": 857.9475973455546,
        "timestamp": "2025-12-12T07:43:20.804445+00:00",
        "meta_object_name": "FENGYUN 1C DEB",
        "meta_object_id": "1999-025EXR",
        "meta_epoch": "2025-12-10T21:18:45.300384",
        "meta_mean_motion": 14.42881738,
        "meta_eccentricity": 0.0310259,
        "meta_inclination": 99.169,
        "meta_ra_of_asc_node": 29.7554,
        "meta_arg_of_pericenter": 3.6391,
        "meta_mean_anomaly": 356.6951,
        "meta_ephemeris_type": 0,
        "meta_classification_type": "U",
        "meta_norad_cat_id": 41011,
        "meta_element_set_no": 999,
        "meta_rev_at_epoch": 57130,
        "meta_bstar": 0.00084069,
        "meta_mean_motion_dot": 4.979e-05,
        "meta_mean_motion_ddot": 0,
        "tle_line1": "1 41011U 99025EXR 25344.88802431  .00004979  00000+0  84069-3 0  9992",
        "tle_line2": "2 41011  99.1690  29.7554 0310259   3.6391 356.6951 14.42881738571304"
      },
      "geometry": {
        "type": "Point",
        "coordinates": [
          -164.41505110117185,
          -59.19068784103815
        ]
      }
    },
    {
      "type": "Feature",
      "properties": {
        "norad_id": 41018,
        "name": "FENGYUN 1C DEB",
        "group": "fengyun-1c-debris",
        "lat": -17.38972756079407,
        "lon": -66.14342919495091,
        "alt_km": 1231.5865354490752,
        "timestamp": "2025-12-12T07:43:20.804455+00:00",
        "meta_object_name": "FENGYUN 1C DEB",
        "meta_object_id": "1999-025EXY",
        "meta_epoch": "2025-12-11T01:37:38.775360",
        "meta_mean_motion": 13.52353334,
        "meta_eccentricity": 0.03042761,
        "meta_inclination": 99.9366,
        "meta_ra_of_asc_node": 289.4523,
        "meta_arg_of_pericenter": 122.8636,
        "meta_mean_anomaly": 240.2177,
        "meta_ephemeris_type": 0,
        "meta_classification_type": "U",
        "meta_norad_cat_id": 41018,
        "meta_element_set_no": 999,
        "meta_rev_at_epoch": 88152,
        "meta_bstar": 0.0022479257,
        "meta_mean_motion_dot": 1.943e-05,
        "meta_mean_motion_ddot": 0,
        "tle_line1": "1 41018U 99025EXY 25345.06780990  .00001943  00000+0  22479-2 0  9999",
        "tle_line2": "2 41018  99.9366 289.4523 0304276 122.8636 240.2177 13.52353334881520"
      },
      "geometry": {
        "type": "Point",
        "coordinates": [
          -66.14342919495091,
          -17.38972756079407
        ]
      }
    },
    {
      "type": "Feature",
      "properties": {
        "norad_id": 41822,
        "name": "FENGYUN 1C DEB",
        "group": "fengyun-1c-debris",
        "lat": -78.72869291277792,
        "lon": 102.99483365470775,
        "alt_km": 793.8400484698041,
        "timestamp": "2025-12-12T07:43:20.804466+00:00",
        "meta_object_name": "FENGYUN 1C DEB",
        "meta_object_id": "1999-025EXZ",
        "meta_epoch": "2025-12-11T15:15:25.440768",
        "meta_mean_motion": 14.24784752,
        "meta_eccentricity": 0.00553368,
        "meta_inclination": 98.7324,
        "meta_ra_of_asc_node": 51.8512,
        "meta_arg_of_pericenter": 223.632,
        "meta_mean_anomaly": 136.0477,
        "meta_ephemeris_type": 0,
        "meta_classification_type": "U",
        "meta_norad_cat_id": 41822,
        "meta_element_set_no": 999,
        "meta_rev_at_epoch": 47357,
        "meta_bstar": 0.0025006795,
        "meta_mean_motion_dot": 5.882e-05,
        "meta_mean_motion_ddot": 0,
        "tle_line1": "1 41822U 99025EXZ 25345.63571112  .00005882  00000+0  25007-2 0  9995",
        "tle_line2": "2 41822  98.7324  51.8512 0055336 223.6320 136.0477 14.24784752473572"
      },
      "geometry": {
        "type": "Point",
        "coordinates": [
          102.99483365470775,
          -78.72869291277792
        ]
      }
    },
    {
      "type": "Feature",
      "properties": {
        "norad_id": 41823,
        "name": "FENGYUN 1C DEB",
        "group": "fengyun-1c-debris",
        "lat": -9.821892665138575,
        "lon": 51.173186030964445,
        "alt_km": 837.5310132478353,
        "timestamp": "2025-12-12T07:43:20.804476+00:00",
        "meta_object_name": "FENGYUN 1C DEB",
        "meta_object_id": "1999-025EYA",
        "meta_epoch": "2025-12-11T14:53:59.934048",
        "meta_mean_motion": 14.23506812,
        "meta_eccentricity": 0.00546255,
        "meta_inclination": 98.7202,
        "meta_ra_of_asc_node": 48.956,
        "meta_arg_of_pericenter": 231.453,
        "meta_mean_anomaly": 128.1746,
        "meta_ephemeris_type": 0,
        "meta_classification_type": "U",
        "meta_norad_cat_id": 41823,
        "meta_element_set_no": 999,
        "meta_rev_at_epoch": 47342,
        "meta_bstar": 0.0023443892,
        "meta_mean_motion_dot": 5.373e-05,
        "meta_mean_motion_ddot": 0,
        "tle_line1": "1 41823U 99025EYA 25345.62083257  .00005373  00000+0  23444-2 0  9991",
        "tle_line2": "2 41823  98.7202  48.9560 0054625 231.4530 128.1746 14.23506812473421"
      },
      "geometry": {
        "type": "Point",
        "coordinates": [
          51.173186030964445,
          -9.821892665138575
        ]
      }
    }
  ]
}